[{"OBJECT_NAME":"YAOGAN-36 03A","OBJECT_ID":"2022-160A","EPOCH":"2026-03-09T21:08:19.248576","MEAN_MOTION":15.31468155,"ECCENTRICITY":0.00027649,"INCLINATION":34.9999,"RA_OF_ASC_NODE":237.2222,"ARG_OF_PERICENTER":84.1273,"MEAN_ANOMALY":275.9759,"EPHEMERIS_TYPE":0,"CLASSIFICATION_TYPE":"U","NORAD_CAT_ID":54372,"ELEMENT_SET_NO":999,"REV_AT_EPOCH":18296,"BSTAR":0.00056596392,"MEAN_MOTION_DOT":0.00017652,"MEAN_MOTION_DDOT":0},{"OBJECT_NAME":"STARLINK-36315","OBJECT_ID":"2026-026L","EPOCH":"2026-03-09T22:00:01.999584","MEAN_MOTION":15.48146499,"ECCENTRICITY":0.0001862,"INCLINATION":97.2849,"RA_OF_ASC_NODE":123.4838,"ARG_OF_PERICENTER":92.9236,"MEAN_ANOMALY":83.2277,"EPHEMERIS_TYPE":0,"CLASSIFICATION_TYPE":"U","NORAD_CAT_ID":67731,"ELEMENT_SET_NO":999,"REV_AT_EPOCH":535,"BSTAR":-0.044727238,"MEAN_MOTION_DOT":-0.02085772,"MEAN_MOTION_DDOT":0}]
